{
  "type": "FeatureCollection",
  "features": [
    {
      "type": "Feature",
      "properties": {
        "norad_id": 33765,
        "name": "COSMOS 2251 DEB",
        "group": "cosmos-2251-debris",
        "lat": 73.7248980958866,
        "lon": -136.3244438381207,
        "alt_km": 564.1789752469413,
        "timestamp": "2025-12-26T13:39:19.372364+00:00",
        "meta_object_name": "COSMOS 2251 DEB",
        "meta_object_id": "1993-036N",
        "meta_epoch": "2025-12-26T02:40:18.277824",
        "meta_mean_motion": 15.1070679,
        "meta_eccentricity": 0.00647226,
        "meta_inclination": 74.0098,
        "meta_ra_of_asc_node": 145.4423,
        "meta_arg_of_pericenter": 235.5123,
        "meta_mean_anomaly": 243.969,
        "meta_ephemeris_type": 0,
        "meta_classification_type": "U",
        "meta_norad_cat_id": 33765,
        "meta_element_set_no": 999,
        "meta_rev_at_epoch": 89820,
        "meta_bstar": 0.0015130412,
        "meta_mean_motion_dot": 0.00026411,
        "meta_mean_motion_ddot": 0,
        "tle_line1": "1 33765U 93036N   25360.11132266  .00026411  00000+0  15130-2 0  9998",
        "tle_line2": "2 33765  74.0098 145.4423 0064722 235.5123 243.9690 15.10706790898205"
      },
      "geometry": {
        "type": "Point",
        "coordinates": [
          -136.3244438381207,
          73.7248980958866
        ]
      }
    },
    {
      "type": "Feature",
      "properties": {
        "norad_id": 33766,
        "name": "COSMOS 2251 DEB",
        "group": "cosmos-2251-debris",
        "lat": 30.09583949108286,
        "lon": -79.58765253366225,
        "alt_km": 817.0693694709853,
        "timestamp": "2025-12-26T13:39:19.372376+00:00",
        "meta_object_name": "COSMOS 2251 DEB",
        "meta_object_id": "1993-036P",
        "meta_epoch": "2025-12-25T18:33:25.189344",
        "meta_mean_motion": 14.3497211,
        "meta_eccentricity": 0.00648446,
        "meta_inclination": 74.1862,
        "meta_ra_of_asc_node": 111.3113,
        "meta_arg_of_pericenter": 311.1353,
        "meta_mean_anomaly": 48.4214,
        "meta_ephemeris_type": 0,
        "meta_classification_type": "U",
        "meta_norad_cat_id": 33766,
        "meta_element_set_no": 999,
        "meta_rev_at_epoch": 87932,
        "meta_bstar": 0.00055753785,
        "meta_mean_motion_dot": 1.6e-05,
        "meta_mean_motion_ddot": 0,
        "tle_line1": "1 33766U 93036P   25359.77320821  .00001600  00000+0  55754-3 0  9995",
        "tle_line2": "2 33766  74.1862 111.3113 0064844 311.1353  48.4214 14.34972110879323"
      },
      "geometry": {
        "type": "Point",
        "coordinates": [
          -79.58765253366225,
          30.09583949108286
        ]
      }
    },
    {
      "type": "Feature",
      "properties": {
        "norad_id": 33768,
        "name": "COSMOS 2251 DEB",
        "group": "cosmos-2251-debris",
        "lat": -45.930499445587536,
        "lon": 34.71211897424849,
        "alt_km": 1192.8685531170086,
        "timestamp": "2025-12-26T13:39:19.372387+00:00",
        "meta_object_name": "COSMOS 2251 DEB",
        "meta_object_id": "1993-036R",
        "meta_epoch": "2025-12-26T00:41:37.413600",
        "meta_mean_motion": 13.58465773,
        "meta_eccentricity": 0.03668844,
        "meta_inclination": 74.0665,
        "meta_ra_of_asc_node": 198.4204,
        "meta_arg_of_pericenter": 353.2639,
        "meta_mean_anomaly": 118.3441,
        "meta_ephemeris_type": 0,
        "meta_classification_type": "U",
        "meta_norad_cat_id": 33768,
        "meta_element_set_no": 999,
        "meta_rev_at_epoch": 83476,
        "meta_bstar": 0.00032934725,
        "meta_mean_motion_dot": 3.5e-06,
        "meta_mean_motion_ddot": 0,
        "tle_line1": "1 33768U 93036R   25360.02890525  .00000350  00000+0  32935-3 0  9997",
        "tle_line2": "2 33768  74.0665 198.4204 0366884 353.2639 118.3441 13.58465773834760"
      },
      "geometry": {
        "type": "Point",
        "coordinates": [
          34.71211897424849,
          -45.930499445587536
        ]
      }
    },
    {
      "type": "Feature",
      "properties": {
        "norad_id": 33779,
        "name": "COSMOS 2251 DEB",
        "group": "cosmos-2251-debris",
        "lat": 68.34722451373929,
        "lon": -82.20739698814323,
        "alt_km": 647.9585305735509,
        "timestamp": "2025-12-26T13:39:19.372399+00:00",
        "meta_object_name": "COSMOS 2251 DEB",
        "meta_object_id": "1993-036U",
        "meta_epoch": "2025-12-25T19:45:34.828992",
        "meta_mean_motion": 14.70801648,
        "meta_eccentricity": 0.00157913,
        "meta_inclination": 74.0448,
        "meta_ra_of_asc_node": 145.3462,
        "meta_arg_of_pericenter": 178.3148,
        "meta_mean_anomaly": 300.1025,
        "meta_ephemeris_type": 0,
        "meta_classification_type": "U",
        "meta_norad_cat_id": 33779,
        "meta_element_set_no": 999,
        "meta_rev_at_epoch": 88720,
        "meta_bstar": 0.0028394103,
        "meta_mean_motion_dot": 0.0001739,
        "meta_mean_motion_ddot": 0,
        "tle_line1": "1 33779U 93036U   25359.82331978  .00017390  00000+0  28394-2 0  9992",
        "tle_line2": "2 33779  74.0448 145.3462 0015791 178.3148 300.1025 14.70801648887203"
      },
      "geometry": {
        "type": "Point",
        "coordinates": [
          -82.20739698814323,
          68.34722451373929
        ]
      }
    },
    {
      "type": "Feature",
      "properties": {
        "norad_id": 33782,
        "name": "COSMOS 2251 DEB",
        "group": "cosmos-2251-debris",
        "lat": 13.654775877181507,
        "lon": 67.9824641958846,
        "alt_km": 770.5719117709341,
        "timestamp": "2025-12-26T13:39:19.372409+00:00",
        "meta_object_name": "COSMOS 2251 DEB",
        "meta_object_id": "1993-036X",
        "meta_epoch": "2025-12-26T03:35:04.036992",
        "meta_mean_motion": 14.40479298,
        "meta_eccentricity": 0.00211595,
        "meta_inclination": 74.0326,
        "meta_ra_of_asc_node": 252.7468,
        "meta_arg_of_pericenter": 315.8981,
        "meta_mean_anomaly": 194.7355,
        "meta_ephemeris_type": 0,
        "meta_classification_type": "U",
        "meta_norad_cat_id": 33782,
        "meta_element_set_no": 999,
        "meta_rev_at_epoch": 88319,
        "meta_bstar": 0.00033355662,
        "meta_mean_motion_dot": 1.037e-05,
        "meta_mean_motion_ddot": 0,
        "tle_line1": "1 33782U 93036X   25360.14935228  .00001037  00000+0  33356-3 0  9997",
        "tle_line2": "2 33782  74.0326 252.7468 0021159 315.8981 194.7355 14.40479298883195"
      },
      "geometry": {
        "type": "Point",
        "coordinates": [
          67.9824641958846,
          13.654775877181507
        ]
      }
    },
    {
      "type": "Feature",
      "properties": {
        "norad_id": 33785,
        "name": "COSMOS 2251 DEB",
        "group": "cosmos-2251-debris",
        "lat": 70.82942813144045,
        "lon": 89.17503015534925,
        "alt_km": 656.7954533512348,
        "timestamp": "2025-12-26T13:39:19.372420+00:00",
        "meta_object_name": "COSMOS 2251 DEB",
        "meta_object_id": "1993-036AA",
        "meta_epoch": "2025-12-26T05:28:23.585664",
        "meta_mean_motion": 14.70783753,
        "meta_eccentricity": 0.00232928,
        "meta_inclination": 73.8667,
        "meta_ra_of_asc_node": 33.478,
        "meta_arg_of_pericenter": 330.6827,
        "meta_mean_anomaly": 104.2114,
        "meta_ephemeris_type": 0,
        "meta_classification_type": "U",
        "meta_norad_cat_id": 33785,
        "meta_element_set_no": 999,
        "meta_rev_at_epoch": 88705,
        "meta_bstar": 0.0019034513,
        "meta_mean_motion_dot": 0.00011657,
        "meta_mean_motion_ddot": 0,
        "tle_line1": "1 33785U 93036AA  25360.22805076  .00011657  00000+0  19035-2 0  9992",
        "tle_line2": "2 33785  73.8667  33.4780 0023292 330.6827 104.2114 14.70783753887053"
      },
      "geometry": {
        "type": "Point",
        "coordinates": [
          89.17503015534925,
          70.82942813144045
        ]
      }
    },
    {
      "type": "Feature",
      "properties": {
        "norad_id": 33789,
        "name": "COSMOS 2251 DEB",
        "group": "cosmos-2251-debris",
        "lat": 32.99954629618716,
        "lon": -126.75659436520591,
        "alt_km": 779.2966094057492,
        "timestamp": "2025-12-26T13:39:19.372431+00:00",
        "meta_object_name": "COSMOS 2251 DEB",
        "meta_object_id": "1993-036AE",
        "meta_epoch": "2025-12-26T06:19:33.661920",
        "meta_mean_motion": 13.88824773,
        "meta_eccentricity": 0.02394843,
        "meta_inclination": 74.0643,
        "meta_ra_of_asc_node": 64.454,
        "meta_arg_of_pericenter": 177.0952,
        "meta_mean_anomaly": 243.4193,
        "meta_ephemeris_type": 0,
        "meta_classification_type": "U",
        "meta_norad_cat_id": 33789,
        "meta_element_set_no": 999,
        "meta_rev_at_epoch": 85283,
        "meta_bstar": 0.0006308553,
        "meta_mean_motion_dot": 9.36e-06,
        "meta_mean_motion_ddot": 0,
        "tle_line1": "1 33789U 93036AE  25360.26358405  .00000936  00000+0  63086-3 0  9993",
        "tle_line2": "2 33789  74.0643  64.4540 0239484 177.0952 243.4193 13.88824773852833"
      },
      "geometry": {
        "type": "Point",
        "coordinates": [
          -126.75659436520591,
          32.99954629618716
        ]
      }
    }
  ]
}